STARLINK-31955          
1 59939U 24106T   26068.09245399 -.00001235  00000+0 -35368-4 0  9992
2 59939  43.0036 335.7110 0001578 261.2872  98.7801 15.27582623100478
FLOCK 4G-18             
1 62680U 25009BZ  26068.19114186  .00011766  00000+0  44319-3 0  9995
2 62680  97.4054 150.5008 0004100 335.7331  24.3715 15.27241676121267
